      2.10          N: GNSS NAV DATA                        RINEX VERSION / TYPE
fic2rin                                 08/12/2018 00:06:03 PGM / RUN BY / DATE
                                                            END OF HEADER
27 18  8 12  0  0  0.0 3.546504303813e-04-2.955857780762e-12 0.000000000000e+00
    1.000000000000e+01 1.326875000000e+02 4.252677141073e-09 1.427054847362e+00
    6.794929504395e-06 5.999970599078e-03 4.475936293602e-06 5.153691957474e+03
    0.000000000000e+00-2.607703208923e-08 1.102362049278e+00 1.676380634308e-08
    9.775841881911e-01 3.006250000000e+02 4.561016923177e-01-8.298559954046e-09
    4.457328522767e-10 1.000000000000e+00 2.014000000000e+03 0.000000000000e+00
    2.400000000000e+00 0.000000000000e+00 1.862645149231e-09 1.000000000000e+01
    5.976060000000e+05 4.000000000000e+00
32 18  8 12  0  0  0.0-4.538404755294e-04 9.549694368616e-12 0.000000000000e+00
    4.900000000000e+01 5.012500000000e+01 5.025923635607e-09 2.139200092876e+00
    2.592802047729e-06 2.291045268066e-03 7.541850209236e-06 5.153685441971e+03
    0.000000000000e+00-3.911554813385e-08-2.043032642087e+00 1.117587089539e-08
    9.567369925989e-01 2.326875000000e+02-2.523313062597e+00-8.232485773220e-09
    6.053823594624e-10 1.000000000000e+00 2.014000000000e+03 0.000000000000e+00
    2.400000000000e+00 0.000000000000e+00 4.656612873077e-10 4.900000000000e+01
    5.976060000000e+05 4.000000000000e+00
24 18  8 12  0  0  0.0-5.382159724832e-05-4.547473508865e-13 0.000000000000e+00
    1.030000000000e+02-4.640625000000e+01 5.485585639518e-09-4.179555182335e-01
   -2.548098564148e-06 7.086826954037e-03 5.485489964485e-06 5.153626373291e+03
    0.000000000000e+00 2.421438694000e-08-1.031521711523e+00 1.415610313416e-07
    9.406655706110e-01 2.610000000000e+02 5.346457405868e-01-8.648574533558e-09
   -6.750281176306e-10 1.000000000000e+00 2.014000000000e+03 0.000000000000e+00
    2.400000000000e+00 0.000000000000e+00 2.793967723846e-09 1.030000000000e+02
    5.976060000000e+05 4.000000000000e+00
25 18  8 12  0  0  0.0-6.302157416940e-04-5.798028723802e-12 0.000000000000e+00
    6.800000000000e+01 6.681250000000e+01 3.706582965487e-09-2.445936272275e+00
    3.514811396599e-06 7.444630260579e-03 1.335889101028e-05 5.153613798141e+03
    0.000000000000e+00 2.235174179077e-08 6.259274794776e-02-6.146728992462e-08
    9.738576486915e-01 1.291250000000e+02 8.703999065755e-01-7.429238029013e-09
   -2.457245211269e-10 1.000000000000e+00 2.014000000000e+03 0.000000000000e+00
    2.400000000000e+00 0.000000000000e+00 5.587935447693e-09 6.800000000000e+01
    5.976060000000e+05 4.000000000000e+00
23 18  8 12  0  0  0.0-2.129715867341e-04 6.821210263297e-13 0.000000000000e+00
    7.900000000000e+01 4.462500000000e+01 5.408796726665e-09 6.593972896296e-02
    2.449378371239e-06 1.264449884184e-02 7.441267371178e-06 5.153745174408e+03
    0.000000000000e+00-2.421438694000e-08-2.050727412708e+00 8.381903171539e-08
    9.432078808513e-01 2.248437500000e+02-2.334365610738e+00-8.647145902621e-09
    5.203788187237e-10 1.000000000000e+00 2.014000000000e+03 0.000000000000e+00
    2.400000000000e+00 0.000000000000e+00-2.002343535423e-08 7.900000000000e+01
    5.976060000000e+05 4.000000000000e+00
21 18  8 12  0  0  0.0-3.539910539985e-04 5.684341886081e-12 0.000000000000e+00
    7.900000000000e+01-1.173437500000e+02 5.004851329290e-09-2.535893722130e+00
   -5.867332220078e-06 2.434820227791e-02 9.853392839432e-07 5.153655973434e+03
    0.000000000000e+00 2.086162567139e-07 2.102723158060e+00 2.402812242508e-07
    9.447336927047e-01 3.406875000000e+02-1.536926579710e+00-8.365348450341e-09
   -1.100045821324e-10 1.000000000000e+00 2.014000000000e+03 0.000000000000e+00
    2.400000000000e+00 0.000000000000e+00-1.024454832077e-08 7.900000000000e+01
    5.976060000000e+05 4.000000000000e+00
17 18  8 12  0  0  0.0-6.830226629972e-05 4.206412995700e-12 0.000000000000e+00
    7.900000000000e+01 1.156562500000e+02 4.164816338461e-09 1.399461090520e+00
    5.928799510002e-06 1.246098859701e-02 4.030764102936e-06 5.153597183228e+03
    0.000000000000e+00-2.756714820862e-07 1.156869502087e+00-1.974403858185e-07
    9.828745754141e-01 3.103125000000e+02-1.776313615369e+00-8.280702067336e-09
    4.768055751518e-10 1.000000000000e+00 2.014000000000e+03 0.000000000000e+00
    2.400000000000e+00 0.000000000000e+00-1.117587089539e-08 7.900000000000e+01
    5.976060000000e+05 4.000000000000e+00
19 18  8 12  0  0  0.0-4.125703126192e-04 3.296918293927e-12 0.000000000000e+00
    9.600000000000e+01 1.053437500000e+02 4.143029716675e-09-2.068246668627e+00
    5.550682544708e-06 9.794011362828e-03 2.617016434669e-06 5.153725543976e+03
    0.000000000000e+00 1.024454832077e-07 1.203723867199e+00 4.842877388000e-08
    9.804329431960e-01 3.322500000000e+02 1.257033709437e+00-8.105337619846e-09
    5.218074496605e-10 1.000000000000e+00 2.014000000000e+03 0.000000000000e+00
    3.400000000000e+00 0.000000000000e+00-1.536682248116e-08 9.600000000000e+01
    5.976060000000e+05 4.000000000000e+00
26 18  8 12  0  0  0.0-5.461508408189e-05 1.193711796077e-11 0.000000000000e+00
    8.600000000000e+01 6.131250000000e+01 4.166244969397e-09-2.968750320573e+00
    3.132969141006e-06 2.821304369718e-03 1.408718526363e-05 5.153709360123e+03
    0.000000000000e+00 2.421438694000e-08 3.928768906138e-02-1.862645149231e-08
    9.553315701259e-01 1.047812500000e+02 9.263857492849e-02-7.784967132272e-09
   -3.435857402966e-10 1.000000000000e+00 2.014000000000e+03 0.000000000000e+00
    2.400000000000e+00 0.000000000000e+00 7.450580596924e-09 8.600000000000e+01
    5.976060000000e+05 4.000000000000e+00
16 18  8 12  0  0  0.0 1.397496089339e-05-1.591615728103e-12 0.000000000000e+00
    5.600000000000e+01 8.153125000000e+01 3.484430854817e-09 2.395060656964e+00
    4.084780812263e-06 9.973230306059e-03 1.479126513004e-05 5.153684913635e+03
    0.000000000000e+00-1.378357410431e-07 1.421480836897e-01-1.210719347000e-07
    9.866794658802e-01 1.069687500000e+02 5.233671410507e-01-7.416023192847e-09
   -2.435815747217e-10 1.000000000000e+00 2.014000000000e+03 0.000000000000e+00
    2.400000000000e+00 0.000000000000e+00-1.071020960808e-08 5.600000000000e+01
    5.976060000000e+05 4.000000000000e+00
18 18  8 12  0  0  0.0 4.458101466298e-05 4.320099833421e-12 0.000000000000e+00
    9.000000000000e+01-9.056250000000e+01 5.267362263924e-09-9.961086999714e-01
   -4.326924681664e-06 1.491835410707e-02 1.901760697365e-06 5.153632709503e+03
    0.000000000000e+00-8.568167686462e-08 2.110258564237e+00 3.352761268616e-07
    9.504742037286e-01 3.410000000000e+02 1.333375730988e+00-8.938943771460e-09
   -2.128660095809e-10 1.000000000000e+00 2.014000000000e+03 0.000000000000e+00
    2.400000000000e+00 0.000000000000e+00-6.519258022308e-09 9.000000000000e+01
    5.976060000000e+05 4.000000000000e+00
31 18  8 12  0  0  0.0 1.013167202473e-04-2.614797267597e-12 0.000000000000e+00
    7.000000000000e+01-4.175000000000e+01 4.910918845196e-09-1.601959719321e+00
   -2.210959792137e-06 8.800594019704e-03 6.584450602531e-06 5.153706039429e+03
    0.000000000000e+00 5.587935447693e-09-9.576482369558e-01-9.126961231232e-08
    9.622682010073e-01 2.543750000000e+02-1.205602419323e-01-8.242486189777e-09
   -5.575232230801e-10 1.000000000000e+00 2.014000000000e+03 0.000000000000e+00
    2.400000000000e+00 0.000000000000e+00-1.350417733192e-08 7.000000000000e+01
    5.976060000000e+05 4.000000000000e+00
29 18  8 12  0  0  0.0 3.977189771831e-04-7.048583938740e-12 0.000000000000e+00
    1.290000000000e+02 1.153750000000e+02 4.119457306218e-09 2.103205654775e+00
    6.020069122314e-06 8.331679273397e-04 3.097578883171e-06 5.153648958206e+03
    0.000000000000e+00 1.136213541031e-07 1.167585941704e+00 0.000000000000e+00
    9.841870601643e-01 3.322187500000e+02 1.498173367769e+00-8.200341577142e-09
    5.057353516217e-10 1.000000000000e+00 2.014000000000e+03 0.000000000000e+00
    2.400000000000e+00 0.000000000000e+00-1.024454832077e-08 1.290000000000e+02
    5.976060000000e+05 4.000000000000e+00
20 18  8 12  0  0  0.0 5.139950662851e-04 6.821210263297e-13 0.000000000000e+00
    8.300000000000e+01-9.671875000000e+01 4.935919886590e-09-8.643434037836e-01
   -5.116686224937e-06 4.110269481316e-03 1.350045204163e-05 5.153684135437e+03
    0.000000000000e+00-4.656612873077e-08 3.089653195474e+00-2.048909664154e-08
    9.293211061143e-01 1.036875000000e+02 2.068859224611e+00-8.267130073437e-09
    9.036090675161e-11 1.000000000000e+00 2.014000000000e+03 0.000000000000e+00
    2.400000000000e+00 0.000000000000e+00-8.381903171539e-09 8.300000000000e+01
    5.976060000000e+05 4.000000000000e+00
28 18  8 12  0  0  0.0 7.376000285149e-04 2.501110429876e-12 0.000000000000e+00
    7.900000000000e+01 5.393750000000e+01 3.401213102749e-09 2.337762728881e+00
    2.872198820114e-06 1.946390490048e-02 1.361407339573e-05 5.153688419342e+03
    0.000000000000e+00 2.626329660416e-07 1.463297296892e-01 1.117587089539e-08
    9.855689823212e-01 1.237500000000e+02-1.516530392984e+00-7.094938389805e-09
   -2.264380034803e-10 1.000000000000e+00 2.014000000000e+03 0.000000000000e+00
    4.850000000000e+00 0.000000000000e+00-1.117587089539e-08 7.900000000000e+01
    5.976060000000e+05 4.000000000000e+00
 2 18  8 11 23 59 44.0 3.079604357481e-05-1.125499693444e-11 0.000000000000e+00
    7.000000000000e+00-8.340625000000e+01 5.181644407717e-09-4.492762490620e-01
   -4.315748810768e-06 1.798549725208e-02 2.508983016014e-06 5.153791959763e+03
    6.047840000000e+05-1.769512891769e-07 2.216767581885e+00 1.434236764908e-07
    9.511290219529e-01 3.318125000000e+02-1.838736854999e+00-9.001089217210e-09
   -1.546492989069e-10 1.000000000000e+00 2.013000000000e+03 0.000000000000e+00
    2.400000000000e+00 0.000000000000e+00-2.048909664154e-08 7.000000000000e+00
    5.997060000000e+05 4.000000000000e+00
